{
  "norad_id": 63641,
  "name": "STARLINK-33826",
  "history": [
    {
      "epoch": "2026-04-16T20:14:21.169248Z",
      "apogee_km": 484.2930622045569,
      "perigee_km": 481.7612926230904,
      "latitude_deg": -2.453520835444243e-05,
      "longitude_deg": 1.021675159380109,
      "height_km": 483.1060311268086,
      "semi_major_axis_km": 6861.164177413823,
      "eccentricity": 0.0001845,
      "inclination_deg": 43.0021,
      "raan_deg": 149.5951,
      "arg_perigee_deg": 256.2145,
      "mean_anomaly_deg": 103.8501,
      "mean_motion_rev_day": 15.2758732
    },
    {
      "epoch": "2026-04-17T04:05:08.190816Z",
      "apogee_km": 483.90605773471725,
      "perigee_km": 482.1472670415005,
      "latitude_deg": 4.4822831403148515e-05,
      "longitude_deg": -118.8421135719464,
      "height_km": 483.13037299124653,
      "semi_major_axis_km": 6861.163662388109,
      "eccentricity": 0.00012817,
      "inclination_deg": 43.001,
      "raan_deg": 147.7494,
      "arg_perigee_deg": 248.1616,
      "mean_anomaly_deg": 111.91,
      "mean_motion_rev_day": 15.27587492
    },
    {
      "epoch": "2026-04-18T19:19:02.790624Z",
      "apogee_km": 483.83244485729756,
      "perigee_km": 482.18302566294096,
      "latitude_deg": -4.075595977067404e-05,
      "longitude_deg": 1.8371027774001867,
      "height_km": 482.9135377995694,
      "semi_major_axis_km": 6861.144735260119,
      "eccentricity": 0.0001202,
      "inclination_deg": 43.0003,
      "raan_deg": 138.5174,
      "arg_perigee_deg": 260.9825,
      "mean_anomaly_deg": 99.089,
      "mean_motion_rev_day": 15.27593813
    },
    {
      "epoch": "2026-04-19T18:51:24.256224Z",
      "apogee_km": 483.58773950377235,
      "perigee_km": 482.5050447644935,
      "latitude_deg": 5.276112189996769e-05,
      "longitude_deg": 2.241836981883255,
      "height_km": 482.8389652194004,
      "semi_major_axis_km": 6861.183392134132,
      "eccentricity": 7.89e-05,
      "inclination_deg": 43.0002,
      "raan_deg": 132.9782,
      "arg_perigee_deg": 268.2651,
      "mean_anomaly_deg": 91.8111,
      "mean_motion_rev_day": 15.27580903
    },
    {
      "epoch": "2026-04-20T12:07:07.566816Z",
      "apogee_km": 484.0342309852849,
      "perigee_km": 482.0501151920107,
      "latitude_deg": -7.997663376563283e-06,
      "longitude_deg": 98.54208359001008,
      "height_km": 482.7733055030727,
      "semi_major_axis_km": 6861.179173088647,
      "eccentricity": 0.00014459,
      "inclination_deg": 43.0025,
      "raan_deg": 128.9179,
      "arg_perigee_deg": 272.6514,
      "mean_anomaly_deg": 87.4172,
      "mean_motion_rev_day": 15.27582312
    },
    {
      "epoch": "2026-04-21T17:56:05.023104Z",
      "apogee_km": 484.55750674025603,
      "perigee_km": 481.39178982573867,
      "latitude_deg": 2.0515054955401702e-05,
      "longitude_deg": 3.0605117733862954,
      "height_km": 482.8398342244086,
      "semi_major_axis_km": 6861.1116482829975,
      "eccentricity": 0.0002307,
      "inclination_deg": 43.0024,
      "raan_deg": 121.9002,
      "arg_perigee_deg": 266.8296,
      "mean_anomaly_deg": 93.2292,
      "mean_motion_rev_day": 15.27604863
    }
  ]
}